QIANFAN-73              
1 63159U 25046A   25326.45976088  .00000035  00000+0  36227-4 0  9997
2 63159  88.9750 322.1241 0014925 175.3999 184.7292 13.50973979 44679
QIANFAN-74              
1 63160U 25046B   25326.44321270  .00000029  00000+0  26432-4 0  9995
2 63160  88.9750 322.0143 0002006  86.0623 274.0758 13.50976107 44733
QIANFAN-75              
1 63161U 25046C   25326.43054973  .00000126  00000+0  17644-3 0  9990
2 63161  88.9752 322.2489 0015934 179.0776 181.0408 13.50989165 44600
QIANFAN-76              
1 63162U 25046D   25326.42691214 -.00000104  00000+0 -17964-3 0  9998
2 63162  88.9749 322.2303 0013478 178.7595 181.3592 13.50965674 44615
QIANFAN-77              
1 63163U 25046E   25326.40208789  .00000084  00000+0  50874-4 0  9991
2 63163  88.9752 320.4063 0016070 138.1100 222.1309 13.96075962 45619
QIANFAN-78              
1 63164U 25046F   25326.46796605  .00000014  00000+0  28619-5 0  9993
2 63164  88.9749 322.0901 0014786 181.5841 178.5266 13.50974665 44692
QIANFAN-79              
1 63165U 25046G   25326.42258476  .00000037  00000+0  38534-4 0  9990
2 63165  88.9754 322.2015 0014525 179.6190 180.4975 13.50975572 44634
QIANFAN-80              
1 63166U 25046H   25326.43909110  .00000088  00000+0  11753-3 0  9999
2 63166  88.9752 321.9070 0013372 183.4945 176.6114 13.50979821 44790
